GLOBALSTAR M023         
1 25621U 99004A   25073.91160227  .00000070  00000+0  96604-3 0  9997
2 25621  52.0134 340.5151 0009327 281.2459 157.7072 12.62501013203919
GLOBALSTAR M040         
1 25622U 99004B   25073.92924757 -.00000045  00000+0  32893-3 0  9998
2 25622  51.9944 344.4745 0000794 139.0096 300.1445 12.62004489203356
GLOBALSTAR M036         
1 25623U 99004C   25074.19680208 -.00000045  00000+0  55454-3 0  9997
2 25623  51.9949 128.0594 0011149 231.2098 167.5185 11.86590720167801
GLOBALSTAR M038         
1 25624U 99004D   25074.12480813 -.00000051  00000+0  36102-3 0  9997
2 25624  52.0001 342.4615 0001311 201.2271 305.5592 12.32522138190733
GLOBALSTAR M022         
1 25649U 99012A   25073.75482083 -.00000073  00000+0  16898-3 0  9996
2 25649  52.0031 187.6116 0002013   1.2722 165.6533 12.02497254165017
GLOBALSTAR M041         
1 25650U 99012B   25073.66551977 -.00000096  00000+0 -13148-3 0  9998
2 25650  52.0022  66.4238 0001764 125.8984 234.2017 11.96668751166962
GLOBALSTAR M046         
1 25651U 99012C   25073.90397582 -.00000133  00000+0 -49167-3 0  9998
2 25651  52.0037 140.7820 0002404  76.7913  94.3934 12.09406293172258
GLOBALSTAR M037         
1 25652U 99012D   25074.53579341 -.00000042  00000+0  34440-3 0  9990
2 25652  51.9989 109.2656 0001686 347.1943 166.9321 12.62439047199504
